IRIDIUM 26              
1 24903U 97043A   25059.56432236  .00001111  00000+0  36861-3 0  9993
2 24903  86.4021 156.2323 0002357  95.5352 264.6115 14.37002449441614
IRIDIUM 22              
1 24907U 97043E   25059.75343358  .00000974  00000+0  32982-3 0  9990
2 24907  86.4030 159.5935 0002100  94.7105 265.4331 14.35832357441218
DUMMY MASS 1            
1 24925U 97048A   25059.66454933  .00001298  00000+0  14249-3 0  9993
2 24925  86.3406 185.4589 0007385 153.6669 206.4932 14.86827506489004
DUMMY MASS 2            
1 24926U 97048B   25059.81059019  .00001285  00000+0  14191-3 0  9999
2 24926  86.3404 186.9769 0007730 165.2805 194.8647 14.86580873488807
IRIDIUM 29              
1 24944U 97051A   25059.81405278  .00001232  00000+0  41495-3 0  9994
2 24944  86.4018 189.3016 0001829  95.1810 264.9596 14.36312337437710
IRIDIUM 33              
1 24946U 97051C   25059.67843900  .00000862  00000+0  29696-3 0  9995
2 24946  86.3934 188.6106 0009774  77.1109 283.1178 14.34785840437189
IRIDIUM 28              
1 24948U 97051E   25059.64873126  .00001164  00000+0  38431-3 0  9990
2 24948  86.4027 186.9513 0002475  92.0626 268.0855 14.37244921438255
IRIDIUM 36              
1 24967U 97056C   25059.90667844  .00001277  00000+0  42075-3 0  9997
2 24967  86.3972 218.4320 0002087  85.8396 274.3040 14.37444128436664
